1 44932U 20001U   22365.19139752  .00002041  00000-0  15587-3 0  9996
2 44932  53.0539 174.2595 0001120  90.5564 269.5553 15.06401578165560
1 44932U 20001U   22365.19139752  .00002041  00000-0  15587-3 0  9996
2 44932  53.0539 174.2595 0001120  90.5564 269.5553 15.06401578165560
1 44932U 20001U   22365.72216691  .00002398  00000-0  17979-3 0  9995
2 44932  53.0540 171.8765 0001107  90.7140 269.3975 15.06407542165643
1 44932U 20001U   23001.18660388  .00000397  00000-0  45514-4 0  9993
2 44932  53.0547 169.7921 0001027  90.0125 270.0982 15.06396910165718
1 44932U 20001U   23001.18660388  .00000397  00000-0  45514-4 0  9993
2 44932  53.0547 169.7921 0001027  90.0125 270.0982 15.06396910165718
1 44932U 20001U   23001.78371929  .00000639  00000-0  61786-4 0  9997
2 44932  53.0541 167.1114 0001137  89.3408 270.7712 15.06404499165805
1 44932U 20001U   23001.78371929  .00000639  00000-0  61786-4 0  9997
2 44932  53.0541 167.1114 0001137  89.3408 270.7712 15.06404499165805
1 44932U 20001U   23002.44718867 -.00000354  00000-0 -49094-5 0  9992
2 44932  53.0546 164.1352 0001164  86.5245 273.5877 15.06401734165902
1 44932U 20001U   23002.71257980 -.00001081  00000-0 -53690-4 0  9990
2 44932  53.0536 162.9432 0001262  85.6607 274.4526 15.06397253165942
1 44932U 20001U   23002.71257980 -.00001081  00000-0 -53690-4 0  9990
2 44932  53.0536 162.9432 0001262  85.6607 274.4526 15.06397253165942
1 44932U 20001U   23003.57508222  .00000862  00000-0  76778-4 0  9999
2 44932  53.0545 159.0701 0001317  89.1543 270.9597 15.06401835166073
1 44932U 20001U   23003.57508222  .00000862  00000-0  76778-4 0  9999
2 44932  53.0545 159.0701 0001317  89.1543 270.9597 15.06401835166073
1 44932U 20001U   23003.70777993  .00000166  00000-0  30048-4 0  9994
2 44932  53.0547 158.4736 0001301  89.1225 270.9913 15.06396832166090
1 44932U 20001U   23004.37125216  .00000635  00000-0  61555-4 0  9991
2 44932  53.0546 155.4954 0001320  87.5966 272.5174 15.06391457166199
1 44932U 20001U   23004.70298008  .00001301  00000-0  10621-3 0  9996
2 44932  53.0556 154.0087 0001423  86.8667 273.2485 15.06400031166244
1 44932U 20001U   23005.10105470  .00002048  00000-0  15633-3 0  9998
2 44932  53.0562 152.2215 0001347  88.9185 271.1959 15.06406823166302
1 44932U 20001U   23005.10105470  .00002048  00000-0  15633-3 0  9998
2 44932  53.0562 152.2215 0001347  88.9185 271.1959 15.06406823166302
1 44932U 20001U   23005.83087299  .00000023  00000-0  20422-4 0  9990
2 44932  53.0573 148.9448 0001513  82.2685 277.8476 15.06405149166410
1 44932U 20001U   23005.83087299  .00000023  00000-0  20422-4 0  9990
2 44932  53.0573 148.9448 0001513  82.2685 277.8476 15.06405149166410
1 44932U 20001U   23006.49436186 -.00002575  00000-0 -15415-3 0  9997
2 44932  53.0565 145.9657 0000816  89.0556 271.0527 15.06382286166517
1 44932U 20001U   23006.75974962 -.00002107  00000-0 -12267-3 0  9998
2 44932  53.0557 144.7738 0001048  85.0237 275.0871 15.06384753166556
1 44932U 20001U   23007.09148224 -.00001824  00000-0 -10360-3 0  9997
2 44932  53.0554 143.2850 0001102  83.4032 276.7083 15.06390142166606
1 44932U 20001U   23007.09148224 -.00001824  00000-0 -10360-3 0  9997
2 44932  53.0554 143.2850 0001102  83.4032 276.7083 15.06390142166606
1 44932U 20001U   23007.62225330  .00000365  00000-0  43408-4 0  9997
2 44932  53.0545 140.9022 0001291  81.7285 278.3850 15.06396193166681
1 44932U 20001U   23007.62225330  .00000365  00000-0  43408-4 0  9997
2 44932  53.0545 140.9022 0001291  81.7285 278.3850 15.06396193166681
1 44932U 20001U   23008.08667495  .00002957  00000-0  21732-3 0  9994
2 44932  53.0547 138.8168 0001401  83.3365 276.7783 15.06402390166752
1 44932U 20001U   23008.61745966  .00005334  00000-0  37673-3 0  9996
2 44932  53.0538 136.4346 0001535  80.6345 279.4817 15.06398835166835
1 44932U 20001U   23008.61745966  .00005334  00000-0  37673-3 0  9996
2 44932  53.0538 136.4346 0001535  80.6345 279.4817 15.06398835166835
1 44932U 20001U   23009.61265881  .00001573  00000-0  12446-3 0  9992
2 44932  53.0529 131.9681 0001555  76.1271 283.9891 15.06404705166989
1 44932U 20001U   23010.34247683 -.00001488  00000-0 -80998-4 0  9999
2 44932  53.0533 128.6899 0001702  84.9672 275.1511 15.06394965167095
1 44932U 20001U   23010.60786992 -.00000923  00000-0 -43077-4 0  9999
2 44932  53.0548 127.4987 0001508  75.6328 284.4828 15.06393703167133
1 44932U 20001U   23011.60305068  .00006169  00000-0  43240-3 0  9998
2 44932  53.0539 123.0318 0001349  67.1128 293.0003 15.06423835167287
1 44932U 20001U   23011.60305068  .00006169  00000-0  43240-3 0  9998
2 44932  53.0539 123.0318 0001349  67.1128 293.0003 15.06423835167287
1 44932U 20001U   23012.00114527  .00000177  00000-0  30818-4 0  9992
2 44932  53.0542 121.2443 0001713  70.6524 289.4650 15.06397454167345
1 44932U 20001U   23012.66463036 -.00001493  00000-0 -81364-4 0  9992
2 44932  53.0542 118.2660 0002529  75.0042 285.1227 15.06379971167440
1 44932U 20001U   23012.66463036 -.00001493  00000-0 -81364-4 0  9992
2 44932  53.0542 118.2660 0002529  75.0042 285.1227 15.06379971167440
1 44932U 20001U   23013.52713346  .00001109  00000-0  93359-4 0  9999
2 44932  53.0531 114.3948 0001334  90.8062 269.3080 15.06392663167572
1 44932U 20001U   23013.52713346  .00001109  00000-0  93359-4 0  9999
2 44932  53.0531 114.3948 0001334  90.8062 269.3080 15.06392663167572
1 44932U 20001U   23013.65982550  .00004898  00000-0  34747-3 0  9991
2 44932  53.0525 113.7996 0001318  81.5213 278.5925 15.06402195167592
1 44932U 20001U   23014.65503262  .00015376  00000-0  10484-2 0  9995
2 44932  53.0522 109.3301 0001341  93.3922 266.7220 15.06416935167745
1 44932U 20001U   23015.11946310  .00014132  00000-0  96550-3 0  9990
2 44932  53.0523 107.2457 0001551 111.4266 248.6888 15.06408261167811
1 44932U 20001U   23015.51754725  .00033695  00000-0  22695-2 0  9994
2 44932  53.0531 105.4588 0001371 102.4278 257.6864 15.06411030167876
1 44932U 20001U   23015.51754725  .00033695  00000-0  22695-2 0  9994
2 44932  53.0531 105.4588 0001371 102.4278 257.6864 15.06411030167876
1 44932U 20001U   23015.65024117  .00014290  00000-0  97620-3 0  9995
2 44932  53.0514 104.8639 0001726  99.3812 260.7372 15.06402208167897
1 44932U 20001U   23015.65024117  .00014290  00000-0  97620-3 0  9995
2 44932  53.0514 104.8639 0001726  99.3812 260.7372 15.06402208167897
1 44932U 20001U   23016.51274768  .00018622  00000-0  12653-2 0  9995
2 44932  53.0535 100.9912 0000958  86.0027 274.1072 15.06412532168021
1 44932U 20001U   23016.51274768  .00018622  00000-0  12653-2 0  9995
2 44932  53.0535 100.9912 0000958  86.0027 274.1072 15.06412532168021
1 44932U 20001U   23017.50796784  .00012558  00000-0  86087-3 0  9997
2 44932  53.0552  96.5202 0001168  71.4666 288.6450 15.06382141168171
1 44932U 20001U   23017.57431447  .00015507  00000-0  10580-2 0  9997
2 44932  53.0539  96.2255 0000957 100.1013 260.0084 15.06386083168189
1 44932U 20001U   23018.56950704  .00033776  00000-0  22728-2 0  9994
2 44932  53.0539  91.7592 0000980  99.1490 260.9610 15.06445278168338
1 44932U 20001U   23018.56950704  .00033776  00000-0  22728-2 0  9994
2 44932  53.0539  91.7592 0000980  99.1490 260.9610 15.06445278168338
1 44932U 20001U   23018.90124048  .00017784  00000-0  12088-2 0  9995
2 44932  53.0539  90.2695 0001351  87.2356 272.8788 15.06430648168386
1 44932U 20001U   23018.90124048  .00017784  00000-0  12088-2 0  9995
2 44932  53.0539  90.2695 0001351  87.2356 272.8788 15.06430648168386
1 44932U 20001U   23019.16662750  .00017914  00000-0  12175-2 0  9993
2 44932  53.0522  89.0794 0002097  83.8707 276.2521 15.06428965168421
1 44932U 20001U   23019.43201111  .00026718  00000-0  18046-2 0  9998
2 44932  53.0535  87.8876 0001342  90.7962 269.3181 15.06424142168466
1 44932U 20001U   23019.49835685  .00031235  00000-0  21050-2 0  9992
2 44932  53.0534  87.5898 0001303  89.3710 270.7428 15.06427247168478
1 44932U 20001U   23019.96278477  .00019237  00000-0  13064-2 0  9998
2 44932  53.0536  85.5042 0001209 104.9426 255.1697 15.06410985168546
1 44932U 20001U   23020.49356592  .00030173  00000-0  20358-2 0  9999
2 44932  53.0534  83.1216 0001380  69.9106 290.2032 15.06400900168624
1 44932U 20001U   23020.49356592  .00030173  00000-0  20358-2 0  9999
2 44932  53.0534  83.1216 0001380  69.9106 290.2032 15.06400900168624
1 44932U 20001U   23020.89164813  .00021525  00000-0  14594-2 0  9992
2 44932  53.0532  81.3343 0001323  75.4696 284.6440 15.06402980168682
1 44932U 20001U   23021.42242351  .00014245  00000-0  97304-3 0  9998
2 44932  53.0537  78.9526 0001484  77.0356 283.0799 15.06409184168763
1 44932U 20001U   23022.15223810  .00005925  00000-0  41632-3 0  9996
2 44932  53.0537  75.6758 0001743  87.7737 272.3452 15.06403208168873
1 44932U 20001U   23023.14744240  .00001180  00000-0  98127-4 0  9992
2 44932  53.0528  71.2068 0001567  81.6406 278.4760 15.06397769169020
1 44932U 20001U   23024.14264975  .00001024  00000-0  87619-4 0  9996
2 44932  53.0549  66.7417 0001589  93.6099 266.5072 15.06391514169177
1 44932U 20001U   23025.46958946  .00002170  00000-0  16452-3 0  9999
2 44932  53.0535  60.7810 0001537  93.6557 266.4608 15.06396384169371
1 44932U 20001U   23025.46958946  .00002170  00000-0  16452-3 0  9999
2 44932  53.0535  60.7810 0001537  93.6557 266.4608 15.06396384169371
1 44932U 20001U   23025.80132266  .00001902  00000-0  14653-3 0  9999
2 44932  53.0537  59.2917 0001397  92.3456 267.7693 15.06398798169427
1 44932U 20001U   23026.46478698  .00005590  00000-0  39372-3 0  9996
2 44932  53.0537  56.3133 0001582  93.8173 266.2997 15.06411365169521
1 44932U 20001U   23026.79652491  .00002501  00000-0  18676-3 0  9990
2 44932  53.0552  54.8242 0001688  85.7966 274.3215 15.06402165169575
1 44932U 20001U   23027.45999593  .00000781  00000-0  71301-4 0  9994
2 44932  53.0540  51.8456 0001628  88.2540 271.8635 15.06398444169679
1 44932U 20001U   23027.45999593  .00000781  00000-0  71301-4 0  9994
2 44932  53.0540  51.8456 0001628  88.2540 271.8635 15.06398444169679
1 44932U 20001U   23027.79172993  .00000669  00000-0  63794-4 0  9990
2 44932  53.0540  50.3567 0001643  87.7296 272.3881 15.06399515169720
1 44932U 20001U   23028.18981085  .00001014  00000-0  86973-4 0  9993
2 44932  53.0540  48.5695 0001508  91.8700 268.2462 15.06399415169781
1 44932U 20001U   23029.25135745  .00003159  00000-0  23084-3 0  9991
2 44932  53.0540  43.8035 0001511  94.1486 265.9675 15.06403965169942
1 44932U 20001U   23029.45039581  .00003305  00000-0  24064-3 0  9996
2 44932  53.0543  42.9105 0001495  95.0505 265.0655 15.06407054169971
1 44932U 20001U   23030.24656150  .00000201  00000-0  32398-4 0  9994
2 44932  53.0556  39.3324 0001817 116.9808 243.1367 15.06398227170098
1 44932U 20001U   23030.44560404  .00000617  00000-0  60323-4 0  9992
2 44932  53.0544  38.4427 0001581  92.3472 267.7698 15.06397679170124
1 44932U 20001U   23031.44081013 -.00001875  00000-0 -10702-3 0  9991
2 44932  53.0539  33.9752 0001577  98.1463 261.9705 15.06393608170277
1 44932U 20001U   23031.44081013 -.00001875  00000-0 -10702-3 0  9991
2 44932  53.0539  33.9752 0001577  98.1463 261.9705 15.06393608170277
